FORMOSAT-3 FM5
1 29049U 06011C 17253.09085530 .00000097 00000-0 54867-4 0 9990
2 29049 72.0188 91.9404 0035400 355.3257 4.7544 14.28585869595156